NORAD_CAT_ID,OBJECT_NAME,OBJECT_TYPE,EPOCH,MEAN_MOTION,ECCENTRICITY,INCLINATION,RA_OF_ASC_NODE,ARG_OF_PERICENTER,MEAN_ANOMALY,BSTAR,MEAN_MOTION_DOT,MEAN_MOTION_DDOT,TLE_LINE0,TLE_LINE1,TLE_LINE2,SEMIMAJOR_AXIS,PERIOD,APOGEE,PERIGEE,DECAYED
55675.0,STARLINK-5232,PAYLOAD,2024-03-28 12:35:37,14.98336618,0.0002818,70.0,157.3694,267.7094,92.3742,0.00037774,4.418e-05,0.0,0 STARLINK-5232,1 55675U 23021AZ  24088.52473902  .00004418  00000-0  37774-3 0  9998,2 55675  70.0000 157.3694 0002818 267.7094  92.3742 14.98336618 62763,6950.172,96.107,573.996,570.079,0.0
55675.0,STARLINK-5232,PAYLOAD,2024-03-28 22:12:26,14.98335822,0.0002776,70.0,156.3572,273.7796,86.3046,0.00023512,2.714e-05,0.0,0 STARLINK-5232,1 55675U 23021AZ  24088.92530155  .00002714  00000-0  23512-3 0  9998,2 55675  70.0000 156.3572 0002776 273.7796  86.3046 14.98335822 62829,6950.175,96.107,573.969,570.111,0.0
55675.0,STARLINK-5232,PAYLOAD,2024-03-29 12:37:38,14.98337189,0.0002722,70.0003,154.8446,268.7533,91.3314,8.9162e-05,9.71e-06,0.0,0 STARLINK-5232,1 55675U 23021AZ  24089.52613985  .00000971  00000-0  89162-4 0  9995,2 55675  70.0003 154.8446 0002722 268.7533  91.3314 14.98337189 62618,6950.171,96.107,573.927,570.144,0.0
55675.0,STARLINK-5232,PAYLOAD,2024-03-30 12:39:39,14.98336725,0.0002782,70.0,152.32,264.8626,95.2215,-2.3933e-06,-1.22e-06,0.0,0 STARLINK-5232,1 55675U 23021AZ  24090.52753508 -.00000122  00000-0 -23933-5 0  9998,2 55675  70.0000 152.3200 0002782 264.8626  95.2215 14.98336725 62766,6950.172,96.107,573.971,570.104,0.0
55675.0,STARLINK-5232,PAYLOAD,2024-03-30 14:15:46,14.98339066,0.0002852,70.0,152.1516,268.0407,92.0426,-2.8662e-05,-4.35e-06,0.0,0 STARLINK-5232,1 55675U 23021AZ  24090.59429376 -.00000435  00000-0 -28662-4 0  9998,2 55675  70.0000 152.1516 0002852 268.0407  92.0426 14.98339066 63070,6950.165,96.106,574.012,570.048,0.0
55675.0,STARLINK-5232,PAYLOAD,2024-03-31 12:41:39,14.98362702,0.0002591,70.0,149.7955,273.4583,86.628,-0.00043865,-5.327e-05,0.0,0 STARLINK-5232,1 55675U 23021AZ  24091.52892376 -.00005327  00000-0 -43865-3 0  9992,2 55675  70.0000 149.7955 0002591 273.4583  86.6280 14.98362702 62916,6950.092,96.105,573.758,570.156,0.0
55675.0,STARLINK-5232,PAYLOAD,2024-03-31 14:17:46,14.98362642,0.000264,70.0001,149.6272,275.3551,84.7307,-0.00041135,-5.002e-05,0.0,0 STARLINK-5232,1 55675U 23021AZ  24091.59568213 -.00005002  00000-0 -41135-3 0  9997,2 55675  70.0001 149.6272 0002640 275.3551  84.7307 14.98362642 63226,6950.092,96.105,573.792,570.122,0.0
55675.0,STARLINK-5232,PAYLOAD,2024-03-31 20:42:20,14.98329094,0.0002727,70.0006,148.9536,270.3421,89.7426,2.7483e-06,-6e-07,0.0,0 STARLINK-5232,1 55675U 23021AZ  24091.86273508 -.00000060  00000-0  27483-5 0  9997,2 55675  70.0006 148.9536 0002727 270.3421  89.7426 14.98329094 62964,6950.196,96.107,573.956,570.165,0.0
55675.0,STARLINK-5232,PAYLOAD,2024-04-01 12:43:41,14.98320542,0.0002503,70.0008,147.2712,261.7788,98.3087,-4.0769e-05,-5.79e-06,0.0,0 STARLINK-5232,1 55675U 23021AZ  24092.53034310 -.00000579  00000-0 -40769-4 0  9995,2 55675  70.0008 147.2712 0002503 261.7788  98.3087 14.98320542 63066,6950.222,96.108,573.827,570.347,0.0
55675.0,STARLINK-5232,PAYLOAD,2024-04-01 14:19:49,14.98312519,0.0002567,70.0013,147.1028,263.6891,96.3975,0.0001684,1.916e-05,0.0,0 STARLINK-5232,1 55675U 23021AZ  24092.59710458  .00001916  00000-0  16840-3 0  9991,2 55675  70.0013 147.1028 0002567 263.6891  96.3975 14.98312519 63370,6950.247,96.108,573.896,570.328,0.0
55675.0,STARLINK-5232,PAYLOAD,2024-04-01 20:44:21,14.98330617,0.0002735,70.0005,146.4299,267.8992,92.1854,6.275e-05,6.56e-06,0.0,0 STARLINK-5232,1 55675U 23021AZ  24092.86413488  .00000656  00000-0  62750-4 0  9996,2 55675  70.0005 146.4299 0002735 267.8992  92.1854 14.98330617 63119,6950.191,96.107,573.957,570.155,0.0
55675.0,STARLINK-5232,PAYLOAD,2024-04-02 12:45:41,14.9833453,0.0002791,70.0001,144.7463,265.94,94.144,7.1887e-05,7.65e-06,0.0,0 STARLINK-5232,1 55675U 23021AZ  24093.53172983  .00000765  00000-0  71887-4 0  9995,2 55675  70.0001 144.7463 0002791 265.9400  94.1440 14.98334530 63519,6950.179,96.107,573.984,570.104,0.0
55675.0,STARLINK-5232,PAYLOAD,2024-04-02 20:46:21,14.9833471,0.0003135,69.999,143.9033,271.6584,88.4216,-1.0382e-05,-2.17e-06,0.0,0 STARLINK-5232,1 55675U 23021AZ  24093.86553020 -.00000217  00000-0 -10382-4 0  9993,2 55675  69.9990 143.9033 0003135 271.6584  88.4216 14.98334710 63266,6950.178,96.107,574.222,569.864,0.0
55675.0,STARLINK-5232,PAYLOAD,2024-04-03 12:47:42,14.98325888,0.0003089,69.9991,142.2206,270.9473,89.1332,6.8273e-05,7.22e-06,0.0,0 STARLINK-5232,1 55675U 23021AZ  24094.53313572  .00000722  00000-0  68273-4 0  9995,2 55675  69.9991 142.2206 0003089 270.9473  89.1332 14.98325888 63362,6950.206,96.107,574.218,569.924,0.0
55675.0,STARLINK-5232,PAYLOAD,2024-04-03 20:48:23,14.98330989,0.000309,69.999,141.3786,270.8596,89.2209,2.5289e-06,-6.3e-07,0.0,0 STARLINK-5232,1 55675U 23021AZ  24094.86693427 -.00000063  00000-0  25289-5 0  9991,2 55675  69.9990 141.3786 0003090 270.8596  89.2209 14.98330989 63712,6950.19,96.107,574.202,569.907,0.0
55675.0,STARLINK-5232,PAYLOAD,2024-04-04 12:49:43,14.98334954,0.0003118,69.9989,139.6955,270.427,89.6531,-2.2303e-06,-1.2e-06,0.0,0 STARLINK-5232,1 55675U 23021AZ  24095.53453015 -.00000120  00000-0 -22303-5 0  9992,2 55675  69.9989 139.6955 0003118 270.4270  89.6531 14.98334954 63510,6950.178,96.107,574.21,569.876,0.0
55675.0,STARLINK-5232,PAYLOAD,2024-04-05 12:51:44,14.98332987,0.0002992,69.9989,137.1707,267.5913,92.4904,7.9273e-05,8.53e-06,0.0,0 STARLINK-5232,1 55675U 23021AZ  24096.53592760  .00000853  00000-0  79273-4 0  9992,2 55675  69.9989 137.1707 0002992 267.5913  92.4904 14.98332987 63664,6950.184,96.107,574.128,569.969,0.0
55675.0,STARLINK-5232,PAYLOAD,2024-04-06 09:41:29,14.98326446,0.0003006,69.9999,134.9831,273.6377,86.4438,2.9352e-05,2.57e-06,0.0,0 STARLINK-5232,1 55675U 23021AZ  24097.40381237  .00000257  00000-0  29352-4 0  9995,2 55675  69.9999 134.9831 0003006 273.6377  86.4438 14.98326446 63799,6950.204,96.107,574.158,569.98,0.0
55675.0,STARLINK-5232,PAYLOAD,2024-04-06 19:18:17,14.98337527,0.0002764,69.9999,133.9734,268.7145,91.3697,-0.00017422,-2.171e-05,0.0,0 STARLINK-5232,1 55675U 23021AZ  24097.80437059 -.00002171  00000-0 -17422-3 0  9996,2 55675  69.9999 133.9734 0002764 268.7145  91.3697 14.98337527 64153,6950.17,96.107,573.956,570.114,0.0
55675.0,STARLINK-5232,PAYLOAD,2024-04-07 12:55:47,14.98322436,0.0003014,69.9991,132.1215,270.1193,89.962,-5.59e-05,-7.6e-06,0.0,0 STARLINK-5232,1 55675U 23021AZ  24098.53874777 -.00000760  00000-0 -55900-4 0  9995,2 55675  69.9991 132.1215 0003014 270.1193  89.9620 14.98322436 63969,6950.216,96.107,574.176,569.986,0.0
55675.0,STARLINK-5232,PAYLOAD,2024-04-07 19:20:20,14.98323738,0.0002994,69.9992,131.4484,268.545,91.5366,-1.5649e-05,-2.8e-06,0.0,0 STARLINK-5232,1 55675U 23021AZ  24098.80578724 -.00000280  00000-0 -15649-4 0  9991,2 55675  69.9992 131.4484 0002994 268.5450  91.5366 14.98323738 64304,6950.212,96.107,574.158,569.996,0.0
55675.0,STARLINK-5232,PAYLOAD,2024-04-08 09:45:32,14.98327796,0.0002966,69.9992,129.9327,269.8298,90.2521,9.2577e-05,1.012e-05,0.0,0 STARLINK-5232,1 55675U 23021AZ  24099.40662588  .00001012  00000-0  92577-4 0  9997,2 55675  69.9992 129.9327 0002966 269.8298  90.2521 14.98327796 64098,6950.2,96.107,574.126,570.003,0.0
55675.0,STARLINK-5232,PAYLOAD,2024-04-09 09:47:33,14.98316831,0.0003042,69.9987,127.4078,269.4743,90.6067,0.00046472,5.454e-05,0.0,0 STARLINK-5232,1 55675U 23021AZ  24100.40802684  .00005454  00000-0  46472-3 0  9999,2 55675  69.9987 127.4078 0003042 269.4743  90.6067 14.98316831 64249,6950.234,96.108,574.213,569.984,0.0
55675.0,STARLINK-5232,PAYLOAD,2024-04-09 19:24:21,14.98337594,0.0003079,69.999,126.3974,267.1438,92.9369,0.00017048,1.942e-05,0.0,0 STARLINK-5232,1 55675U 23021AZ  24100.80858123  .00001942  00000-0  17048-3 0  9997,2 55675  69.9990 126.3974 0003079 267.1438  92.9369 14.98337594 64308,6950.169,96.107,574.174,569.894,0.0
55675.0,STARLINK-5232,PAYLOAD,2024-04-10 05:01:08,14.98364491,0.000289,69.9984,125.3877,271.7134,88.3694,-0.00023315,-2.876e-05,0.0,0 STARLINK-5232,1 55675U 23021AZ  24101.20913115 -.00002876  00000-0 -23315-3 0  9998,2 55675  69.9984 125.3877 0002890 271.7134  88.3694 14.98364491 64368,6950.086,96.105,573.96,569.943,0.0
55675.0,STARLINK-5232,PAYLOAD,2024-04-10 09:49:31,14.98416994,0.0003588,69.9984,124.8827,267.6232,92.4516,-0.0010849,-0.00013044,0.0,0 STARLINK-5232,1 55675U 23021AZ  24101.40939491 -.00013044  00000-0 -10849-2 0  9991,2 55675  69.9984 124.8827 0003588 267.6232  92.4516 14.98416994 64393,6949.924,96.101,574.283,569.295,0.0
55675.0,STARLINK-5232,PAYLOAD,2024-04-10 19:26:21,14.98343592,0.0003057,69.9988,123.8722,269.3487,90.7321,3.9454e-05,3.78e-06,0.0,0 STARLINK-5232,1 55675U 23021AZ  24101.80997293  .00000378  00000-0  39454-4 0  9998,2 55675  69.9988 123.8722 0003057 269.3487  90.7321 14.98343592 64457,6950.151,96.106,574.141,569.891,0.0
55675.0,STARLINK-5232,PAYLOAD,2024-04-11 11:27:42,14.98335583,0.000305,69.9986,122.1896,267.9362,92.1448,-6.1836e-05,-8.31e-06,0.0,0 STARLINK-5232,1 55675U 23021AZ  24102.47757629 -.00000831  00000-0 -61836-4 0  9994,2 55675  69.9986 122.1896 0003050 267.9362  92.1448 14.98335583 64556,6950.176,96.107,574.16,569.921,0.0
55675.0,STARLINK-5232,PAYLOAD,2024-04-12 11:29:41,14.98383102,0.000318,69.9983,119.6645,267.0783,93.0012,-0.00081059,-9.765e-05,0.0,0 STARLINK-5232,1 55675U 23021AZ  24103.47895570 -.00009765  00000-0 -81059-3 0  9996,2 55675  69.9983 119.6645 0003180 267.0783  93.0012 14.98383102 64702,6950.029,96.104,574.104,569.684,0.0
55675.0,STARLINK-5232,PAYLOAD,2024-04-13 05:07:11,14.98329252,0.0003138,69.9985,117.8129,272.115,87.965,1.6896e-05,1.09e-06,0.0,0 STARLINK-5232,1 55675U 23021AZ  24104.21333025  .00000109  00000-0  16896-4 0  9990,2 55675  69.9985 117.8129 0003138 272.1150  87.9650 14.98329252 64817,6950.195,96.107,574.241,569.879,0.0
